[{"OBJECT_NAME":"ONEWEB-0375","OBJECT_ID":"2021-090Y","EPOCH":"2025-07-30T21:23:14.366400","MEAN_MOTION":13.20771122,"ECCENTRICITY":0.0001941,"INCLINATION":87.9289,"RA_OF_ASC_NODE":338.4512,"ARG_OF_PERICENTER":117.3474,"MEAN_ANOMALY":242.7857,"EPHEMERIS_TYPE":0,"CLASSIFICATION_TYPE":"U","NORAD_CAT_ID":49301,"ELEMENT_SET_NO":999,"REV_AT_EPOCH":18811,"BSTAR":-0.00010474,"MEAN_MOTION_DOT":-3.0e-7,"MEAN_MOTION_DDOT":0},{"OBJECT_NAME":"ONEWEB-0376","OBJECT_ID":"2021-090Z","EPOCH":"2025-07-30T22:51:39.067200","MEAN_MOTION":13.19726978,"ECCENTRICITY":0.000201,"INCLINATION":87.9233,"RA_OF_ASC_NODE":8.8039,"ARG_OF_PERICENTER":88.0897,"MEAN_ANOMALY":272.0466,"EPHEMERIS_TYPE":0,"CLASSIFICATION_TYPE":"U","NORAD_CAT_ID":49302,"ELEMENT_SET_NO":999,"REV_AT_EPOCH":18408,"BSTAR":1.1841e-5,"MEAN_MOTION_DOT":1.8e-7,"MEAN_MOTION_DDOT":0},{"OBJECT_NAME":"ONEWEB-0377","OBJECT_ID":"2021-090AA","EPOCH":"2025-07-30T21:02:57.283296","MEAN_MOTION":13.2077135,"ECCENTRICITY":0.0001604,"INCLINATION":87.9294,"RA_OF_ASC_NODE":338.4473,"ARG_OF_PERICENTER":101.409,"MEAN_ANOMALY":258.7223,"EPHEMERIS_TYPE":0,"CLASSIFICATION_TYPE":"U","NORAD_CAT_ID":49303,"ELEMENT_SET_NO":999,"REV_AT_EPOCH":18810,"BSTAR":-0.00066928,"MEAN_MOTION_DOT":-2.59e-6,"MEAN_MOTION_DDOT":0},{"OBJECT_NAME":"ONEWEB-0378","OBJECT_ID":"2021-090AB","EPOCH":"2025-07-30T19:45:42.190272","MEAN_MOTION":13.20771543,"ECCENTRICITY":0.0001931,"INCLINATION":87.9301,"RA_OF_ASC_NODE":338.467,"ARG_OF_PERICENTER":102.6163,"MEAN_ANOMALY":257.5187,"EPHEMERIS_TYPE":0,"CLASSIFICATION_TYPE":"U","NORAD_CAT_ID":49304,"ELEMENT_SET_NO":999,"REV_AT_EPOCH":18736,"BSTAR":6.4448e-5,"MEAN_MOTION_DOT":3.9e-7,"MEAN_MOTION_DDOT":0},{"OBJECT_NAME":"ONEWEB-0379","OBJECT_ID":"2021-090AC","EPOCH":"2025-07-30T21:31:32.986848","MEAN_MOTION":13.14504415,"ECCENTRICITY":0.0001952,"INCLINATION":87.9067,"RA_OF_ASC_NODE":353.6364,"ARG_OF_PERICENTER":98.0406,"MEAN_ANOMALY":262.0945,"EPHEMERIS_TYPE":0,"CLASSIFICATION_TYPE":"U","NORAD_CAT_ID":49305,"ELEMENT_SET_NO":999,"REV_AT_EPOCH":18535,"BSTAR":-0.00025989,"MEAN_MOTION_DOT":-8.4e-7,"MEAN_MOTION_DDOT":0},{"OBJECT_NAME":"ONEWEB-0380","OBJECT_ID":"2021-090AD","EPOCH":"2025-07-30T22:47:05.458272","MEAN_MOTION":13.19726434,"ECCENTRICITY":0.0001696,"INCLINATION":87.9231,"RA_OF_ASC_NODE":8.8334,"ARG_OF_PERICENTER":98.9743,"MEAN_ANOMALY":261.1582,"EPHEMERIS_TYPE":0,"CLASSIFICATION_TYPE":"U","NORAD_CAT_ID":49306,"ELEMENT_SET_NO":999,"REV_AT_EPOCH":18405,"BSTAR":5.2114e-5,"MEAN_MOTION_DOT":3.4e-7,"MEAN_MOTION_DDOT":0},{"OBJECT_NAME":"ONEWEB-0381","OBJECT_ID":"2021-090AE","EPOCH":"2025-07-30T20:58:12.290304","MEAN_MOTION":13.20772156,"ECCENTRICITY":0.0001862,"INCLINATION":87.9298,"RA_OF_ASC_NODE":338.4567,"ARG_OF_PERICENTER":107.6054,"MEAN_ANOMALY":252.5283,"EPHEMERIS_TYPE":0,"CLASSIFICATION_TYPE":"U","NORAD_CAT_ID":49307,"ELEMENT_SET_NO":999,"REV_AT_EPOCH":18741,"BSTAR":2.0301e-5,"MEAN_MOTION_DOT":2.1e-7,"MEAN_MOTION_DDOT":0},{"OBJECT_NAME":"ONEWEB-0382","OBJECT_ID":"2021-090AF","EPOCH":"2025-07-30T20:40:02.988480","MEAN_MOTION":13.2077138,"ECCENTRICITY":0.0002044,"INCLINATION":87.929,"RA_OF_ASC_NODE":338.4519,"ARG_OF_PERICENTER":107.7574,"MEAN_ANOMALY":252.3783,"EPHEMERIS_TYPE":0,"CLASSIFICATION_TYPE":"U","NORAD_CAT_ID":49308,"ELEMENT_SET_NO":999,"REV_AT_EPOCH":18740,"BSTAR":1.2935e-5,"MEAN_MOTION_DOT":1.8e-7,"MEAN_MOTION_DDOT":0},{"OBJECT_NAME":"ONEWEB-0383","OBJECT_ID":"2021-090AG","EPOCH":"2025-07-30T21:22:25.527072","MEAN_MOTION":13.14501924,"ECCENTRICITY":0.0001996,"INCLINATION":87.9066,"RA_OF_ASC_NODE":353.6172,"ARG_OF_PERICENTER":99.2699,"MEAN_ANOMALY":260.8657,"EPHEMERIS_TYPE":0,"CLASSIFICATION_TYPE":"U","NORAD_CAT_ID":49309,"ELEMENT_SET_NO":999,"REV_AT_EPOCH":18667,"BSTAR":-0.00048632,"MEAN_MOTION_DOT":-1.68e-6,"MEAN_MOTION_DDOT":0},{"OBJECT_NAME":"ONEWEB-0384","OBJECT_ID":"2021-090AH","EPOCH":"2025-07-30T20:33:42.970176","MEAN_MOTION":13.20786716,"ECCENTRICITY":0.0002281,"INCLINATION":87.9302,"RA_OF_ASC_NODE":338.4719,"ARG_OF_PERICENTER":110.6943,"MEAN_ANOMALY":249.4435,"EPHEMERIS_TYPE":0,"CLASSIFICATION_TYPE":"U","NORAD_CAT_ID":49310,"ELEMENT_SET_NO":999,"REV_AT_EPOCH":18741,"BSTAR":3.7818e-5,"MEAN_MOTION_DOT":2.8e-7,"MEAN_MOTION_DDOT":0},{"OBJECT_NAME":"ONEWEB-0385","OBJECT_ID":"2021-090AJ","EPOCH":"2025-07-30T20:28:39.993024","MEAN_MOTION":13.20771633,"ECCENTRICITY":0.0001962,"INCLINATION":87.9279,"RA_OF_ASC_NODE":338.469,"ARG_OF_PERICENTER":102.6671,"MEAN_ANOMALY":257.4682,"EPHEMERIS_TYPE":0,"CLASSIFICATION_TYPE":"U","NORAD_CAT_ID":49311,"ELEMENT_SET_NO":999,"REV_AT_EPOCH":18738,"BSTAR":7.7652e-5,"MEAN_MOTION_DOT":4.5e-7,"MEAN_MOTION_DDOT":0},{"OBJECT_NAME":"ONEWEB-0386","OBJECT_ID":"2021-090AK","EPOCH":"2025-07-30T20:53:39.689664","MEAN_MOTION":13.207726,"ECCENTRICITY":0.0002105,"INCLINATION":87.9289,"RA_OF_ASC_NODE":338.4368,"ARG_OF_PERICENTER":105.0638,"MEAN_ANOMALY":255.0729,"EPHEMERIS_TYPE":0,"CLASSIFICATION_TYPE":"U","NORAD_CAT_ID":49312,"ELEMENT_SET_NO":999,"REV_AT_EPOCH":18740,"BSTAR":-1.2296e-5,"MEAN_MOTION_DOT":8.0e-8,"MEAN_MOTION_DDOT":0},{"OBJECT_NAME":"ONEWEB-0387","OBJECT_ID":"2021-090AL","EPOCH":"2025-07-30T20:30:58.077504","MEAN_MOTION":13.20771182,"ECCENTRICITY":0.0001742,"INCLINATION":87.9281,"RA_OF_ASC_NODE":338.4977,"ARG_OF_PERICENTER":108.1874,"MEAN_ANOMALY":251.9449,"EPHEMERIS_TYPE":0,"CLASSIFICATION_TYPE":"U","NORAD_CAT_ID":49313,"ELEMENT_SET_NO":999,"REV_AT_EPOCH":18740,"BSTAR":0.00011108,"MEAN_MOTION_DOT":5.8e-7,"MEAN_MOTION_DDOT":0},{"OBJECT_NAME":"ONEWEB-0388","OBJECT_ID":"2021-090AM","EPOCH":"2025-07-30T22:40:15.840192","MEAN_MOTION":13.19726954,"ECCENTRICITY":0.0001914,"INCLINATION":87.9237,"RA_OF_ASC_NODE":8.8402,"ARG_OF_PERICENTER":98.5445,"MEAN_ANOMALY":261.5904,"EPHEMERIS_TYPE":0,"CLASSIFICATION_TYPE":"U","NORAD_CAT_ID":49314,"ELEMENT_SET_NO":999,"REV_AT_EPOCH":18404,"BSTAR":-6.8956e-5,"MEAN_MOTION_DOT":-1.5e-7,"MEAN_MOTION_DDOT":0},{"OBJECT_NAME":"ONEWEB-0389","OBJECT_ID":"2021-132A","EPOCH":"2025-07-30T20:05:03.279264","MEAN_MOTION":13.17650126,"ECCENTRICITY":0.0001539,"INCLINATION":87.9046,"RA_OF_ASC_NODE":69.829,"ARG_OF_PERICENTER":97.3116,"MEAN_ANOMALY":262.819,"EPHEMERIS_TYPE":0,"CLASSIFICATION_TYPE":"U","NORAD_CAT_ID":50469,"ELEMENT_SET_NO":999,"REV_AT_EPOCH":17576,"BSTAR":5.3932e-5,"MEAN_MOTION_DOT":3.4e-7,"MEAN_MOTION_DDOT":0},{"OBJECT_NAME":"ONEWEB-0390","OBJECT_ID":"2021-132B","EPOCH":"2025-07-30T20:07:28.884864","MEAN_MOTION":13.17649885,"ECCENTRICITY":0.0001533,"INCLINATION":87.904,"RA_OF_ASC_NODE":69.8359,"ARG_OF_PERICENTER":77.1723,"MEAN_ANOMALY":282.958,"EPHEMERIS_TYPE":0,"CLASSIFICATION_TYPE":"U","NORAD_CAT_ID":50470,"ELEMENT_SET_NO":999,"REV_AT_EPOCH":17576,"BSTAR":-3.6302e-5,"MEAN_MOTION_DOT":-1.0e-8,"MEAN_MOTION_DDOT":0},{"OBJECT_NAME":"ONEWEB-0391","OBJECT_ID":"2021-132C","EPOCH":"2025-07-30T21:59:15.119808","MEAN_MOTION":13.17650063,"ECCENTRICITY":0.0001128,"INCLINATION":87.904,"RA_OF_ASC_NODE":69.835,"ARG_OF_PERICENTER":110.0847,"MEAN_ANOMALY":250.0406,"EPHEMERIS_TYPE":0,"CLASSIFICATION_TYPE":"U","NORAD_CAT_ID":50471,"ELEMENT_SET_NO":999,"REV_AT_EPOCH":17577,"BSTAR":-0.00015375,"MEAN_MOTION_DOT":-4.7e-7,"MEAN_MOTION_DDOT":0}]
