ONEWEB-0375             
1 49301U 21090Y   25211.89113850 -.00000030  00000+0 -10474-3 0  9998
2 49301  87.9289 338.4512 0001941 117.3474 242.7857 13.20771122188110
ONEWEB-0376             
1 49302U 21090Z   25211.95253550  .00000018  00000+0  11841-4 0  9992
2 49302  87.9233   8.8039 0002010  88.0897 272.0466 13.19726978184084
ONEWEB-0377             
1 49303U 21090AA  25211.87705189 -.00000259  00000+0 -66928-3 0  9998
2 49303  87.9294 338.4473 0001604 101.4090 258.7223 13.20771350188104
ONEWEB-0378             
1 49304U 21090AB  25211.82340498  .00000039  00000+0  64448-4 0  9992
2 49304  87.9301 338.4670 0001931 102.6163 257.5187 13.20771543187367
ONEWEB-0379             
1 49305U 21090AC  25211.89690957 -.00000084  00000+0 -25989-3 0  9996
2 49305  87.9067 353.6364 0001952  98.0406 262.0945 13.14504415185352
ONEWEB-0380             
1 49306U 21090AD  25211.94936873  .00000034  00000+0  52114-4 0  9997
2 49306  87.9231   8.8334 0001696  98.9743 261.1582 13.19726434184055
ONEWEB-0381             
1 49307U 21090AE  25211.87375336  .00000021  00000+0  20301-4 0  9990
2 49307  87.9298 338.4567 0001862 107.6054 252.5283 13.20772156187416
ONEWEB-0382             
1 49308U 21090AF  25211.86114570  .00000018  00000+0  12935-4 0  9991
2 49308  87.9290 338.4519 0002044 107.7574 252.3783 13.20771380187407
ONEWEB-0383             
1 49309U 21090AG  25211.89057323 -.00000168  00000+0 -48632-3 0  9997
2 49309  87.9066 353.6172 0001996  99.2699 260.8657 13.14501924186671
ONEWEB-0384             
1 49310U 21090AH  25211.85674734  .00000028  00000+0  37818-4 0  9994
2 49310  87.9302 338.4719 0002281 110.6943 249.4435 13.20786716187413
ONEWEB-0385             
1 49311U 21090AJ  25211.85324066  .00000045  00000+0  77652-4 0  9994
2 49311  87.9279 338.4690 0001962 102.6671 257.4682 13.20771633187380
ONEWEB-0386             
1 49312U 21090AK  25211.87059826  .00000008  00000+0 -12296-4 0  9999
2 49312  87.9289 338.4368 0002105 105.0638 255.0729 13.20772600187408
ONEWEB-0387             
1 49313U 21090AL  25211.85483886  .00000058  00000+0  11108-3 0  9999
2 49313  87.9281 338.4977 0001742 108.1874 251.9449 13.20771182187407
ONEWEB-0388             
1 49314U 21090AM  25211.94462778 -.00000015  00000+0 -68956-4 0  9996
2 49314  87.9237   8.8402 0001914  98.5445 261.5904 13.19726954184042
ONEWEB-0389             
1 50469U 21132A   25211.83684351  .00000034  00000+0  53932-4 0  9994
2 50469  87.9046  69.8290 0001539  97.3116 262.8190 13.17650126175765
ONEWEB-0390             
1 50470U 21132B   25211.83852876 -.00000001  00000+0 -36302-4 0  9993
2 50470  87.9040  69.8359 0001533  77.1723 282.9580 13.17649885175767
ONEWEB-0391             
1 50471U 21132C   25211.91614722 -.00000047  00000+0 -15375-3 0  9995
2 50471  87.9040  69.8350 0001128 110.0847 250.0406 13.17650063175777
